{"type": "FeatureCollection", "features": [ {"type": "Feature", "properties": {"norad_id": 40701, "name": "GAOFEN-8", "group": "resource", "lat": -80.76411251963165, "lon": -55.68750632242903, "alt_km": 464.04341733635647, "timestamp": "2025-12-27T15:27:10.800561+00:00", "meta": {"OBJECT_NAME": "GAOFEN-8", "OBJECT_ID": "2015-030A", "EPOCH": "2025-12-27T06:30:15.355584", "MEAN_MOTION": 15.39083893, "ECCENTRICITY": 0.00115883, "INCLINATION": 97.6904, "RA_OF_ASC_NODE": 180.1252, "ARG_OF_PERICENTER": 87.9844, "MEAN_ANOMALY": 272.2727, "EPHEMERIS_TYPE": 0, "CLASSIFICATION_TYPE": "U", "NORAD_CAT_ID": 40701, "ELEMENT_SET_NO": 999, "REV_AT_EPOCH": 58494, "BSTAR": 0.00047119834, "MEAN_MOTION_DOT": 0.00018218, "MEAN_MOTION_DDOT": 0}, "tle": {"line1": "1 40701U 15030A   25361.27101106  .00018218  00000+0  47120-3 0  9992", "line2": "2 40701  97.6904 180.1252 0011588  87.9844 272.2727 15.39083893584949"}}, "geometry": {"type": "Point", "coordinates": [-55.68750632242903, -80.76411251963165]}}, {"type": "Feature", "properties": {"norad_id": 40718, "name": "CARBONITE 1 (CBNT-1)", "group": "resource", "lat": 72.82215516467848, "lon": 156.29330661092067, "alt_km": 607.9161806190796, "timestamp": "2025-12-27T15:27:10.800571+00:00", "meta": {"OBJECT_NAME": "CARBONITE 1 (CBNT-1)", "OBJECT_ID": "2015-032D", "EPOCH": "2025-12-27T07:01:12.362016", "MEAN_MOTION": 14.82809401, "ECCENTRICITY": 0.00154678, "INCLINATION": 97.6408, "RA_OF_ASC_NODE": 181.6961, "ARG_OF_PERICENTER": 134.8707, "MEAN_ANOMALY": 225.3767, "EPHEMERIS_TYPE": 0, "CLASSIFICATION_TYPE": "U", "NORAD_CAT_ID": 40718, "ELEMENT_SET_NO": 999, "REV_AT_EPOCH": 56386, "BSTAR": 0.00012090888, "MEAN_MOTION_DOT": 9.29e-06, "MEAN_MOTION_DDOT": 0}, "tle": {"line1": "1 40718U 15032D   25361.29250419  .00000929  00000+0  12091-3 0  9995", "line2": "2 40718  97.6408 181.6961 0015467 134.8707 225.3767 14.82809401563868"}}, "geometry": {"type": "Point", "coordinates": [156.29330661092067, 72.82215516467848]}}, {"type": "Feature", "properties": {"norad_id": 40878, "name": "YAOGAN-27", "group": "resource", "lat": -22.002658213793392, "lon": 166.45927595679254, "alt_km": 1201.0470109438038, "timestamp": "2025-12-27T15:27:10.800582+00:00", "meta": {"OBJECT_NAME": "YAOGAN-27", "OBJECT_ID": "2015-040A", "EPOCH": "2025-12-27T07:07:46.890336", "MEAN_MOTION": 13.16060247, "ECCENTRICITY": 0.00075981, "INCLINATION": 100.1026, "RA_OF_ASC_NODE": 350.2592, "ARG_OF_PERICENTER": 250.7299, "MEAN_ANOMALY": 109.2993, "EPHEMERIS_TYPE": 0, "CLASSIFICATION_TYPE": "U", "NORAD_CAT_ID": 40878, "ELEMENT_SET_NO": 999, "REV_AT_EPOCH": 49505, "BSTAR": -0.00069910529, "MEAN_MOTION_DOT": -3.08e-06, "MEAN_MOTION_DDOT": 0}, "tle": {"line1": "1 40878U 15040A   25361.29707049 -.00000308  00000+0 -69911-3 0  9993", "line2": "2 40878 100.1026 350.2592 0007598 250.7299 109.2993 13.16060247495054"}}, "geometry": {"type": "Point", "coordinates": [166.45927595679254, -22.002658213793392]}}, {"type": "Feature", "properties": {"norad_id": 40894, "name": "GAOFEN-9 01", "group": "resource", "lat": -22.470605149989126, "lon": 43.14238946263343, "alt_km": 608.1735088670011, "timestamp": "2025-12-27T15:27:10.800592+00:00", "meta": {"OBJECT_NAME": "GAOFEN-9 01", "OBJECT_ID": "2015-047A", "EPOCH": "2025-12-27T07:27:17.771040", "MEAN_MOTION": 14.82458342, "ECCENTRICITY": 0.00271927, "INCLINATION": 97.6524, "RA_OF_ASC_NODE": 39.6357, "ARG_OF_PERICENTER": 346.9731, "MEAN_ANOMALY": 13.0777, "EPHEMERIS_TYPE": 0, "CLASSIFICATION_TYPE": "U", "NORAD_CAT_ID": 40894, "ELEMENT_SET_NO": 999, "REV_AT_EPOCH": 55472, "BSTAR": 0.00016863031, "MEAN_MOTION_DOT": 1.31e-05, "MEAN_MOTION_DDOT": 0}, "tle": {"line1": "1 40894U 15047A   25361.31062235  .00001310  00000+0  16863-3 0  9992", "line2": "2 40894  97.6524  39.6357 0027192 346.9731  13.0777 14.82458342554726"}}, "geometry": {"type": "Point", "coordinates": [43.14238946263343, -22.470605149989126]}}, {"type": "Feature", "properties": {"norad_id": 41026, "name": "YAOGAN-28", "group": "resource", "lat": -40.03716154449315, "lon": -47.1491863235405, "alt_km": 505.40049676933904, "timestamp": "2025-12-27T15:27:10.800605+00:00", "meta": {"OBJECT_NAME": "YAOGAN-28", "OBJECT_ID": "2015-064A", "EPOCH": "2025-12-27T08:11:22.773120", "MEAN_MOTION": 15.2458694, "ECCENTRICITY": 0.00126286, "INCLINATION": 97.2813, "RA_OF_ASC_NODE": 138.7238, "ARG_OF_PERICENTER": 79.7454, "MEAN_ANOMALY": 280.5207, "EPHEMERIS_TYPE": 0, "CLASSIFICATION_TYPE": "U", "NORAD_CAT_ID": 41026, "ELEMENT_SET_NO": 999, "REV_AT_EPOCH": 56447, "BSTAR": 0.00037414101, "MEAN_MOTION_DOT": 9.175e-05, "MEAN_MOTION_DDOT": 0}, "tle": {"line1": "1 41026U 15064A   25361.34123580  .00009175  00000+0  37414-3 0  9995", "line2": "2 41026  97.2813 138.7238 0012628  79.7454 280.5207 15.24586940564476"}}, "geometry": {"type": "Point", "coordinates": [-47.1491863235405, -40.03716154449315]}}, {"type": "Feature", "properties": {"norad_id": 41038, "name": "YAOGAN-29", "group": "resource", "lat": -68.4636004034909, "lon": -176.0722854370912, "alt_km": 627.4857000541715, "timestamp": "2025-12-27T15:27:10.800616+00:00", "meta": {"OBJECT_NAME": "YAOGAN-29", "OBJECT_ID": "2015-069A", "EPOCH": "2025-12-27T07:51:06.098688", "MEAN_MOTION": 14.82898603, "ECCENTRICITY": 0.00010065, "INCLINATION": 98.0209, "RA_OF_ASC_NODE": 24.5447, "ARG_OF_PERICENTER": 158.3757, "MEAN_ANOMALY": 201.7498, "EPHEMERIS_TYPE": 0, "CLASSIFICATION_TYPE": "U", "NORAD_CAT_ID": 41038, "ELEMENT_SET_NO": 999, "REV_AT_EPOCH": 54515, "BSTAR": 6.200962e-05, "MEAN_MOTION_DOT": 4.48e-06, "MEAN_MOTION_DDOT": 0}, "tle": {"line1": "1 41038U 15069A   25361.32715392  .00000448  00000+0  62010-4 0  9994", "line2": "2 41038  98.0209  24.5447 0001006 158.3757 201.7498 14.82898603545155"}}, "geometry": {"type": "Point", "coordinates": [-176.0722854370912, -68.4636004034909]}}, {"type": "Feature", "properties": {"norad_id": 41167, "name": "KENT RIDGE 1", "group": "resource", "lat": -10.970656941035418, "lon": 54.07401038099981, "alt_km": 493.9576437016012, "timestamp": "2025-12-27T15:27:10.800627+00:00", "meta": {"OBJECT_NAME": "KENT RIDGE 1", "OBJECT_ID": "2015-077B", "EPOCH": "2025-12-26T22:21:21.397824", "MEAN_MOTION": 15.21743128, "ECCENTRICITY": 0.0008527, "INCLINATION": 14.9792, "RA_OF_ASC_NODE": 105.8239, "ARG_OF_PERICENTER": 331.0402, "MEAN_ANOMALY": 28.9446, "EPHEMERIS_TYPE": 0, "CLASSIFICATION_TYPE": "U", "NORAD_CAT_ID": 41167, "ELEMENT_SET_NO": 999, "REV_AT_EPOCH": 55480, "BSTAR": 0.00017735, "MEAN_MOTION_DOT": 4.899e-05, "MEAN_MOTION_DDOT": 0}, "tle": {"line1": "1 41167U 15077B   25360.93149766  .00004899  00000+0  17735-3 0  9995", "line2": "2 41167  14.9792 105.8239 0008527 331.0402  28.9446 15.21743128554805"}}, "geometry": {"type": "Point", "coordinates": [54.07401038099981, -10.970656941035418]}}, {"type": "Feature", "properties": {"norad_id": 41194, "name": "GAOFEN-4", "group": "resource", "lat": -0.012530529441899776, "lon": 73.81616279252499, "alt_km": 35789.62477343078, "timestamp": "2025-12-27T15:27:10.800640+00:00", "meta": {"OBJECT_NAME": "GAOFEN-4", "OBJECT_ID": "2015-083A", "EPOCH": "2025-12-27T06:39:26.773344", "MEAN_MOTION": 1.0026871, "ECCENTRICITY": 0.00028264, "INCLINATION": 0.2052, "RA_OF_ASC_NODE": 82.0629, "ARG_OF_PERICENTER": 94.5902, "MEAN_ANOMALY": 124.9112, "EPHEMERIS_TYPE": 0, "CLASSIFICATION_TYPE": "U", "NORAD_CAT_ID": 41194, "ELEMENT_SET_NO": 999, "REV_AT_EPOCH": 3680, "BSTAR": 0, "MEAN_MOTION_DOT": -3.12e-06, "MEAN_MOTION_DDOT": 0}, "tle": {"line1": "1 41194U 15083A   25361.27739321 -.00000312  00000+0  00000+0 0  9992", "line2": "2 41194   0.2052  82.0629 0002826  94.5902 124.9112  1.00268710 36806"}}, "geometry": {"type": "Point", "coordinates": [73.81616279252499, -0.012530529441899776]}}, {"type": "Feature", "properties": {"norad_id": 41240, "name": "JASON-3", "group": "resource", "lat": -65.94043899790998, "lon": 41.70884691607794, "alt_km": 1311.6778378526988, "timestamp": "2025-12-27T15:27:10.800650+00:00", "meta": {"OBJECT_NAME": "JASON-3", "OBJECT_ID": "2016-002A", "EPOCH": "2025-12-27T06:35:15.730368", "MEAN_MOTION": 12.87627215, "ECCENTRICITY": 0.00073385, "INCLINATION": 66.0408, "RA_OF_ASC_NODE": 127.2665, "ARG_OF_PERICENTER": 271.7075, "MEAN_ANOMALY": 88.3103, "EPHEMERIS_TYPE": 0, "CLASSIFICATION_TYPE": "U", "NORAD_CAT_ID": 41240, "ELEMENT_SET_NO": 999, "REV_AT_EPOCH": 46511, "BSTAR": 0.00017544184, "MEAN_MOTION_DOT": -1.8e-07, "MEAN_MOTION_DDOT": 0}, "tle": {"line1": "1 41240U 16002A   25361.27448762 -.00000018  00000+0  17544-3 0  9990", "line2": "2 41240  66.0408 127.2665 0007338 271.7075  88.3103 12.87627215465117"}}, "geometry": {"type": "Point", "coordinates": [41.70884691607794, -65.94043899790998]}}, {"type": "Feature", "properties": {"norad_id": 41335, "name": "SENTINEL-3A", "group": "resource", "lat": -1.0226690856845868, "lon": -113.70711054178825, "alt_km": 805.6505718127437, "timestamp": "2025-12-27T15:27:10.800661+00:00", "meta": {"OBJECT_NAME": "SENTINEL-3A", "OBJECT_ID": "2016-011A", "EPOCH": "2025-12-27T06:11:31.982784", "MEAN_MOTION": 14.26736331, "ECCENTRICITY": 8.885e-05, "INCLINATION": 98.6295, "RA_OF_ASC_NODE": 66.0678, "ARG_OF_PERICENTER": 98.1979, "MEAN_ANOMALY": 261.9302, "EPHEMERIS_TYPE": 0, "CLASSIFICATION_TYPE": "U", "NORAD_CAT_ID": 41335, "ELEMENT_SET_NO": 999, "REV_AT_EPOCH": 51354, "BSTAR": 8.1888332e-05, "MEAN_MOTION_DOT": 1.54e-06, "MEAN_MOTION_DDOT": 0}, "tle": {"line1": "1 41335U 16011A   25361.25800906  .00000154  00000+0  81888-4 0  9998", "line2": "2 41335  98.6295  66.0678 0000888  98.1979 261.9302 14.26736331513544"}}, "geometry": {"type": "Point", "coordinates": [-113.70711054178825, -1.0226690856845868]}}]}